QIANFAN-69              
1 62799U 25016Q   26064.57517654  .00000049  00000+0  57236-4 0  9994
2 62799  88.9666  94.3778 0017956 104.7325 255.5818 13.51005328 58461
QIANFAN-70              
1 62800U 25016R   26064.59159399  .00000050  00000+0  58263-4 0  9990
2 62800  88.9687  94.5321 0017572  96.2411 264.0743 13.50997087 58427
QIANFAN-71              
1 62801U 25016S   26064.58742355  .00000039  00000+0  41954-4 0  9996
2 62801  88.9681  94.5069 0017845 107.8503 252.4597 13.50996553 58420
QIANFAN-72              
1 62802U 25016T   26064.60389176  .00000025  00000+0  19144-4 0  9999
2 62802  88.9672  94.5105 0021051 114.5147 245.8202 13.50996230 58415
QIANFAN-73              
1 63159U 25046A   26064.63074724  .00000192  00000+0  27874-3 0  9994
2 63159  88.9759 311.4624 0013161 242.9172 117.0637 13.50998401 58606
QIANFAN-74              
1 63160U 25046B   26064.61434731  .00000199  00000+0  28942-3 0  9996
2 63160  88.9759 311.3529 0001897  78.5071 281.6294 13.50998261 58662
QIANFAN-75              
1 63161U 25046C   26064.59992994 -.01850496  00000+0 -32414+1 0  9996
2 63161  88.9758 311.5890 0018129 236.6752 123.2661 13.47495406 58538
QIANFAN-76              
1 63162U 25046D   26064.67187262  .00000232  00000+0  34126-3 0  9997
2 63162  88.9761 311.5617 0011875 247.1716 112.8181 13.51014688 58555
QIANFAN-77              
1 63163U 25046E   26064.60896256  .00000452  00000+0  31889-3 0  9998
2 63163  88.9756 308.8943 0014465 174.4209 185.7131 13.96174666 60018
QIANFAN-78              
1 63164U 25046F   26064.63898067  .00000225  00000+0  33040-3 0  9993
2 63164  88.9759 311.4284 0013204 250.0611 109.9118 13.50998635 58625
QIANFAN-79              
1 63165U 25046G   26064.66792281  .00000221  00000+0  32294-3 0  9994
2 63165  88.9764 311.5361 0013059 248.1600 111.8162 13.51008830 58578
QIANFAN-80              
1 63166U 25046H   26064.61015727  .00000201  00000+0  29227-3 0  9993
2 63166  88.9760 311.2468 0011886 253.0407 106.9442 13.50998339 58720
QIANFAN-81              
1 63167U 25046J   26064.66237448  .00000205  00000+0  29893-3 0  9998
2 63167  88.9760 311.3091 0012986 240.5295 119.4561 13.50984288 58686
QIANFAN-82              
1 63168U 25046K   26064.62254367  .00000199  00000+0  29042-3 0  9992
2 63168  88.9760 311.3573 0011018 248.5633 111.4343 13.50999678 58668
QIANFAN-83              
1 63169U 25046L   26064.64165038  .00000281  00000+0  34874-3 0  9992
2 63169  88.9760 310.9688 0012481 226.2576 133.7549 13.62021122 58887
QIANFAN-84              
1 63170U 25046M   26064.65037174 -.00000081  00000+0 -14336-3 0  9995
2 63170  88.9759 311.4866 0014045 244.8499 115.1196 13.50961255 58596
QIANFAN-85              
1 63171U 25046N   26064.64721166  .00000207  00000+0  30176-3 0  9994
2 63171  88.9760 311.3586 0011441 247.2005 112.7938 13.51002449 58661
