[{"OBJECT_NAME":"QIANFAN-69","OBJECT_ID":"2025-016Q","EPOCH":"2026-03-05T13:48:15.253056","MEAN_MOTION":13.51005328,"ECCENTRICITY":0.00179562,"INCLINATION":88.9666,"RA_OF_ASC_NODE":94.3778,"ARG_OF_PERICENTER":104.7325,"MEAN_ANOMALY":255.5818,"EPHEMERIS_TYPE":0,"CLASSIFICATION_TYPE":"U","NORAD_CAT_ID":62799,"ELEMENT_SET_NO":999,"REV_AT_EPOCH":5846,"BSTAR":5.7235965e-5,"MEAN_MOTION_DOT":4.9e-7,"MEAN_MOTION_DDOT":0},{"OBJECT_NAME":"QIANFAN-70","OBJECT_ID":"2025-016R","EPOCH":"2026-03-05T14:11:53.720736","MEAN_MOTION":13.50997087,"ECCENTRICITY":0.0017572,"INCLINATION":88.9687,"RA_OF_ASC_NODE":94.5321,"ARG_OF_PERICENTER":96.2411,"MEAN_ANOMALY":264.0743,"EPHEMERIS_TYPE":0,"CLASSIFICATION_TYPE":"U","NORAD_CAT_ID":62800,"ELEMENT_SET_NO":999,"REV_AT_EPOCH":5842,"BSTAR":5.8263205e-5,"MEAN_MOTION_DOT":5.0e-7,"MEAN_MOTION_DDOT":0},{"OBJECT_NAME":"QIANFAN-71","OBJECT_ID":"2025-016S","EPOCH":"2026-03-05T14:05:53.394720","MEAN_MOTION":13.50996553,"ECCENTRICITY":0.00178456,"INCLINATION":88.9681,"RA_OF_ASC_NODE":94.5069,"ARG_OF_PERICENTER":107.8503,"MEAN_ANOMALY":252.4597,"EPHEMERIS_TYPE":0,"CLASSIFICATION_TYPE":"U","NORAD_CAT_ID":62801,"ELEMENT_SET_NO":999,"REV_AT_EPOCH":5842,"BSTAR":4.1953678e-5,"MEAN_MOTION_DOT":3.9e-7,"MEAN_MOTION_DDOT":0},{"OBJECT_NAME":"QIANFAN-72","OBJECT_ID":"2025-016T","EPOCH":"2026-03-05T14:29:36.248064","MEAN_MOTION":13.5099623,"ECCENTRICITY":0.00210512,"INCLINATION":88.9672,"RA_OF_ASC_NODE":94.5105,"ARG_OF_PERICENTER":114.5147,"MEAN_ANOMALY":245.8202,"EPHEMERIS_TYPE":0,"CLASSIFICATION_TYPE":"U","NORAD_CAT_ID":62802,"ELEMENT_SET_NO":999,"REV_AT_EPOCH":5841,"BSTAR":1.9143762e-5,"MEAN_MOTION_DOT":2.5e-7,"MEAN_MOTION_DDOT":0},{"OBJECT_NAME":"QIANFAN-73","OBJECT_ID":"2025-046A","EPOCH":"2026-03-05T15:08:16.561536","MEAN_MOTION":13.50998401,"ECCENTRICITY":0.00131619,"INCLINATION":88.9759,"RA_OF_ASC_NODE":311.4624,"ARG_OF_PERICENTER":242.9172,"MEAN_ANOMALY":117.0637,"EPHEMERIS_TYPE":0,"CLASSIFICATION_TYPE":"U","NORAD_CAT_ID":63159,"ELEMENT_SET_NO":999,"REV_AT_EPOCH":5860,"BSTAR":0.00027873683,"MEAN_MOTION_DOT":1.92e-6,"MEAN_MOTION_DDOT":0},{"OBJECT_NAME":"QIANFAN-74","OBJECT_ID":"2025-046B","EPOCH":"2026-03-05T14:44:39.607584","MEAN_MOTION":13.50998261,"ECCENTRICITY":0.00018976,"INCLINATION":88.9759,"RA_OF_ASC_NODE":311.3529,"ARG_OF_PERICENTER":78.5071,"MEAN_ANOMALY":281.6294,"EPHEMERIS_TYPE":0,"CLASSIFICATION_TYPE":"U","NORAD_CAT_ID":63160,"ELEMENT_SET_NO":999,"REV_AT_EPOCH":5866,"BSTAR":0.00028941612,"MEAN_MOTION_DOT":1.99e-6,"MEAN_MOTION_DDOT":0},{"OBJECT_NAME":"QIANFAN-75","OBJECT_ID":"2025-046C","EPOCH":"2026-03-05T14:23:53.946816","MEAN_MOTION":13.47495406,"ECCENTRICITY":0.00181296,"INCLINATION":88.9758,"RA_OF_ASC_NODE":311.589,"ARG_OF_PERICENTER":236.6752,"MEAN_ANOMALY":123.2661,"EPHEMERIS_TYPE":0,"CLASSIFICATION_TYPE":"U","NORAD_CAT_ID":63161,"ELEMENT_SET_NO":999,"REV_AT_EPOCH":5853,"BSTAR":-3.2413829,"MEAN_MOTION_DOT":-0.01850496,"MEAN_MOTION_DDOT":0},{"OBJECT_NAME":"QIANFAN-76","OBJECT_ID":"2025-046D","EPOCH":"2026-03-05T16:07:29.794368","MEAN_MOTION":13.51014688,"ECCENTRICITY":0.00118756,"INCLINATION":88.9761,"RA_OF_ASC_NODE":311.5617,"ARG_OF_PERICENTER":247.1716,"MEAN_ANOMALY":112.8181,"EPHEMERIS_TYPE":0,"CLASSIFICATION_TYPE":"U","NORAD_CAT_ID":63162,"ELEMENT_SET_NO":999,"REV_AT_EPOCH":5855,"BSTAR":0.00034125738,"MEAN_MOTION_DOT":2.32e-6,"MEAN_MOTION_DDOT":0},{"OBJECT_NAME":"QIANFAN-77","OBJECT_ID":"2025-046E","EPOCH":"2026-03-05T14:36:54.365184","MEAN_MOTION":13.96174666,"ECCENTRICITY":0.00144657,"INCLINATION":88.9756,"RA_OF_ASC_NODE":308.8943,"ARG_OF_PERICENTER":174.4209,"MEAN_ANOMALY":185.7131,"EPHEMERIS_TYPE":0,"CLASSIFICATION_TYPE":"U","NORAD_CAT_ID":63163,"ELEMENT_SET_NO":999,"REV_AT_EPOCH":6001,"BSTAR":0.0003188941,"MEAN_MOTION_DOT":4.52e-6,"MEAN_MOTION_DDOT":0},{"OBJECT_NAME":"QIANFAN-78","OBJECT_ID":"2025-046F","EPOCH":"2026-03-05T15:20:07.929888","MEAN_MOTION":13.50998635,"ECCENTRICITY":0.0013204,"INCLINATION":88.9759,"RA_OF_ASC_NODE":311.4284,"ARG_OF_PERICENTER":250.0611,"MEAN_ANOMALY":109.9118,"EPHEMERIS_TYPE":0,"CLASSIFICATION_TYPE":"U","NORAD_CAT_ID":63164,"ELEMENT_SET_NO":999,"REV_AT_EPOCH":5862,"BSTAR":0.00033040385,"MEAN_MOTION_DOT":2.25e-6,"MEAN_MOTION_DDOT":0},{"OBJECT_NAME":"QIANFAN-79","OBJECT_ID":"2025-046G","EPOCH":"2026-03-05T16:01:48.530784","MEAN_MOTION":13.5100883,"ECCENTRICITY":0.00130599,"INCLINATION":88.9764,"RA_OF_ASC_NODE":311.5361,"ARG_OF_PERICENTER":248.16,"MEAN_ANOMALY":111.8162,"EPHEMERIS_TYPE":0,"CLASSIFICATION_TYPE":"U","NORAD_CAT_ID":63165,"ELEMENT_SET_NO":999,"REV_AT_EPOCH":5857,"BSTAR":0.00032293501,"MEAN_MOTION_DOT":2.21e-6,"MEAN_MOTION_DDOT":0},{"OBJECT_NAME":"QIANFAN-80","OBJECT_ID":"2025-046H","EPOCH":"2026-03-05T14:38:37.588128","MEAN_MOTION":13.50998339,"ECCENTRICITY":0.0011886,"INCLINATION":88.976,"RA_OF_ASC_NODE":311.2468,"ARG_OF_PERICENTER":253.0407,"MEAN_ANOMALY":106.9442,"EPHEMERIS_TYPE":0,"CLASSIFICATION_TYPE":"U","NORAD_CAT_ID":63166,"ELEMENT_SET_NO":999,"REV_AT_EPOCH":5872,"BSTAR":0.00029226588,"MEAN_MOTION_DOT":2.01e-6,"MEAN_MOTION_DDOT":0},{"OBJECT_NAME":"QIANFAN-81","OBJECT_ID":"2025-046J","EPOCH":"2026-03-05T15:53:49.155072","MEAN_MOTION":13.50984288,"ECCENTRICITY":0.00129869,"INCLINATION":88.976,"RA_OF_ASC_NODE":311.3091,"ARG_OF_PERICENTER":240.5295,"MEAN_ANOMALY":119.4561,"EPHEMERIS_TYPE":0,"CLASSIFICATION_TYPE":"U","NORAD_CAT_ID":63167,"ELEMENT_SET_NO":999,"REV_AT_EPOCH":5868,"BSTAR":0.00029893036,"MEAN_MOTION_DOT":2.05e-6,"MEAN_MOTION_DDOT":0},{"OBJECT_NAME":"QIANFAN-82","OBJECT_ID":"2025-046K","EPOCH":"2026-03-05T14:56:27.773088","MEAN_MOTION":13.50999678,"ECCENTRICITY":0.00110185,"INCLINATION":88.976,"RA_OF_ASC_NODE":311.3573,"ARG_OF_PERICENTER":248.5633,"MEAN_ANOMALY":111.4343,"EPHEMERIS_TYPE":0,"CLASSIFICATION_TYPE":"U","NORAD_CAT_ID":63168,"ELEMENT_SET_NO":999,"REV_AT_EPOCH":5866,"BSTAR":0.00029042393,"MEAN_MOTION_DOT":1.99e-6,"MEAN_MOTION_DDOT":0},{"OBJECT_NAME":"QIANFAN-83","OBJECT_ID":"2025-046L","EPOCH":"2026-03-05T15:23:58.592832","MEAN_MOTION":13.62021122,"ECCENTRICITY":0.00124813,"INCLINATION":88.976,"RA_OF_ASC_NODE":310.9688,"ARG_OF_PERICENTER":226.2576,"MEAN_ANOMALY":133.7549,"EPHEMERIS_TYPE":0,"CLASSIFICATION_TYPE":"U","NORAD_CAT_ID":63169,"ELEMENT_SET_NO":999,"REV_AT_EPOCH":5888,"BSTAR":0.00034874374,"MEAN_MOTION_DOT":2.81e-6,"MEAN_MOTION_DDOT":0},{"OBJECT_NAME":"QIANFAN-84","OBJECT_ID":"2025-046M","EPOCH":"2026-03-05T15:36:32.118336","MEAN_MOTION":13.50961255,"ECCENTRICITY":0.00140454,"INCLINATION":88.9759,"RA_OF_ASC_NODE":311.4866,"ARG_OF_PERICENTER":244.8499,"MEAN_ANOMALY":115.1196,"EPHEMERIS_TYPE":0,"CLASSIFICATION_TYPE":"U","NORAD_CAT_ID":63170,"ELEMENT_SET_NO":999,"REV_AT_EPOCH":5859,"BSTAR":-0.00014336362,"MEAN_MOTION_DOT":-8.1e-7,"MEAN_MOTION_DDOT":0},{"OBJECT_NAME":"QIANFAN-85","OBJECT_ID":"2025-046N","EPOCH":"2026-03-05T15:31:59.087424","MEAN_MOTION":13.51002449,"ECCENTRICITY":0.00114412,"INCLINATION":88.976,"RA_OF_ASC_NODE":311.3586,"ARG_OF_PERICENTER":247.2005,"MEAN_ANOMALY":112.7938,"EPHEMERIS_TYPE":0,"CLASSIFICATION_TYPE":"U","NORAD_CAT_ID":63171,"ELEMENT_SET_NO":999,"REV_AT_EPOCH":5866,"BSTAR":0.00030175689,"MEAN_MOTION_DOT":2.07e-6,"MEAN_MOTION_DDOT":0}]
